[{"OBJECT_NAME":"STARLINK-5525","OBJECT_ID":"2023-094A","EPOCH":"2026-03-09T22:00:01.999584","MEAN_MOTION":15.1907156,"ECCENTRICITY":0.00012507,"INCLINATION":43.0019,"RA_OF_ASC_NODE":28.7896,"ARG_OF_PERICENTER":233.0657,"MEAN_ANOMALY":277.2723,"EPHEMERIS_TYPE":0,"CLASSIFICATION_TYPE":"U","NORAD_CAT_ID":57218,"ELEMENT_SET_NO":999,"REV_AT_EPOCH":567,"BSTAR":0.056169201,"MEAN_MOTION_DOT":0.01299999,"MEAN_MOTION_DDOT":0},{"OBJECT_NAME":"OBJECT AS","OBJECT_ID":"2025-313AS","EPOCH":"2026-03-09T21:37:48.750816","MEAN_MOTION":15.22046455,"ECCENTRICITY":0.00110673,"INCLINATION":97.3991,"RA_OF_ASC_NODE":145.2294,"ARG_OF_PERICENTER":345.8413,"MEAN_ANOMALY":14.2511,"EPHEMERIS_TYPE":0,"CLASSIFICATION_TYPE":"U","NORAD_CAT_ID":67288,"ELEMENT_SET_NO":999,"REV_AT_EPOCH":1085,"BSTAR":0.00031771512,"MEAN_MOTION_DOT":7.207e-5,"MEAN_MOTION_DDOT":0}]
